IRIDIUM 7               
1 24793U 97020B   25354.36613512  .00000305  00000+0  97913-4 0  9999
2 24793  86.3958  98.8994 0001869 103.4411 256.6994 14.36111907498613
IRIDIUM 5               
1 24795U 97020D   25354.47933689  .00002967  00000+0  23095-3 0  9998
2 24795  86.3873 357.6803 0103845 187.1773 172.7979 14.96567940513306
IRIDIUM 4               
1 24796U 97020E   25354.30239367  .00000315  00000+0  99713-4 0  9999
2 24796  86.3955  95.6780 0001963  96.9877 263.1544 14.37018000499197
IRIDIUM 914             
1 24836U 97030A   25354.26971987  .00000365  00000+0  10731-3 0  9998
2 24836  86.3937 103.7462 0001614  46.8076 313.3258 14.41075621633926
IRIDIUM 16              
1 24841U 97030F   25354.44038160  .00000350  00000+0  10736-3 0  9990
2 24841  86.4041 127.0802 0003199 135.6424 224.5032 14.38894941493781
IRIDIUM 911             
1 24842U 97030G   25354.10993205  .00000471  00000+0  12144-3 0  9993
2 24842  86.4463 125.7835 0013790 189.4353 170.6594 14.47902577501988
IRIDIUM 17              
1 24870U 97034B   25354.40143507  .00000351  00000+0  10945-3 0  9997
2 24870  86.3974 156.5161 0003514 106.2579 253.9006 14.38030345490344
IRIDIUM 920             
1 24871U 97034C   25354.31312876  .00000402  00000+0  11701-3 0  9993
2 24871  86.3984 135.3605 0011548 177.5529 182.5730 14.41735796493391
